NORAD_CAT_ID,OBJECT_NAME,OBJECT_TYPE,EPOCH,MEAN_MOTION,ECCENTRICITY,INCLINATION,RA_OF_ASC_NODE,ARG_OF_PERICENTER,MEAN_ANOMALY,BSTAR,MEAN_MOTION_DOT,MEAN_MOTION_DDOT,TLE_LINE0,TLE_LINE1,TLE_LINE2,SEMIMAJOR_AXIS,PERIOD,APOGEE,PERIGEE,DECAYED
51877.0,STARLINK-3556,PAYLOAD,2023-04-28 12:37:57,15.08845254,0.0001047,53.217,15.5281,100.8414,259.2696,-0.00024105,-4.123e-05,0.0,0 STARLINK-3556,1 51877U 22022AB  23118.52635710 -.00004123  00000-0 -24105-3 0  9997,2 51877  53.2170  15.5281 0001047 100.8414 259.2696 15.08845254 65316,6917.864,95.437,540.454,539.005,0.0
51877.0,STARLINK-3556,PAYLOAD,2023-04-29 12:28:44,15.08837685,0.0001379,53.2173,11.0679,52.931,307.1808,0.00030296,4.537e-05,0.0,0 STARLINK-3556,1 51877U 22022AB  23119.51995961  .00004537  00000-0  30296-3 0  9999,2 51877  53.2173  11.0679 0001379  52.9310 307.1808 15.08837685 65464,6917.887,95.438,540.706,538.798,0.0
51877.0,STARLINK-3556,PAYLOAD,2023-04-29 18:50:16,15.08850864,9.38e-05,53.2171,9.8789,106.8519,253.2576,0.00072349,0.00011249,0.0,0 STARLINK-3556,1 51877U 22022AB  23119.78491567  .00011249  00000-0  72349-3 0  9994,2 51877  53.2171   9.8789 0000938 106.8519 253.2576 15.08850864 65501,6917.847,95.437,540.361,539.063,0.0
51877.0,STARLINK-3556,PAYLOAD,2023-04-30 02:47:12,15.08860173,8.79e-05,53.2172,8.3926,106.712,253.3969,0.0014116,0.00022261,0.0,0 STARLINK-3556,1 51877U 22022AB  23120.11611323  .00022261  00000-0  14116-2 0  9990,2 51877  53.2172   8.3926 0000879 106.7120 253.3969 15.08860173 65556,6917.819,95.436,540.292,539.076,0.0
51877.0,STARLINK-3556,PAYLOAD,2023-04-30 21:51:50,15.08844133,9.66e-05,53.2171,4.8243,124.1753,235.933,0.0011582,0.00018195,0.0,0 STARLINK-3556,1 51877U 22022AB  23120.91099918  .00018195  00000-0  11582-2 0  9993,2 51877  53.2171   4.8243 0000966 124.1753 235.9330 15.08844133 65670,6917.868,95.437,540.401,539.064,0.0
51877.0,STARLINK-3556,PAYLOAD,2023-05-01 02:37:59,15.0884284,8.81e-05,53.217,3.9319,123.2702,236.8374,0.00055083,8.49e-05,0.0,0 STARLINK-3556,1 51877U 22022AB  23121.10971940  .00008490  00000-0  55083-3 0  9991,2 51877  53.2170   3.9319 0000881 123.2702 236.8374 15.08842840 65708,6917.872,95.437,540.346,539.127,0.0
51877.0,STARLINK-3556,PAYLOAD,2023-05-01 21:42:37,15.08839526,8.68e-05,53.2162,0.3621,112.276,247.8324,0.00034427,5.195e-05,0.0,0 STARLINK-3556,1 51877U 22022AB  23121.90460353  .00005195  00000-0  34427-3 0  9998,2 51877  53.2162   0.3621 0000868 112.2760 247.8324 15.08839526 65820,6917.882,95.438,540.347,539.146,0.0
51877.0,STARLINK-3556,PAYLOAD,2023-05-01 23:18:00,15.08841751,8.77e-05,53.2163,0.0647,107.8782,252.2306,0.00040321,6.135e-05,0.0,0 STARLINK-3556,1 51877U 22022AB  23121.97084325  .00006135  00000-0  40321-3 0  9991,2 51877  53.2163   0.0647 0000877 107.8782 252.2306 15.08841751 65834,6917.875,95.437,540.347,539.133,0.0
51877.0,STARLINK-3556,PAYLOAD,2023-05-02 21:33:24,15.08852917,9.16e-05,53.217,355.9015,96.3701,263.7396,0.00044534,6.809e-05,0.0,0 STARLINK-3556,1 51877U 22022AB  23122.89819929  .00006809  00000-0  44534-3 0  9997,2 51877  53.2170 355.9015 0000916  96.3701 263.7396 15.08852917 65977,6917.841,95.437,540.34,539.072,0.0
51877.0,STARLINK-3556,PAYLOAD,2023-05-03 08:41:06,15.08846718,9.64e-05,53.217,353.8211,91.8706,268.2396,0.0001381,1.911e-05,0.0,0 STARLINK-3556,1 51877U 22022AB  23123.36187885  .00001911  00000-0  13810-3 0  9991,2 51877  53.2170 353.8211 0000964  91.8706 268.2396 15.08846718 66041,6917.86,95.437,540.392,539.058,0.0
51877.0,STARLINK-3556,PAYLOAD,2023-05-03 21:24:11,15.08841338,0.0001026,53.2173,351.4441,86.1627,273.9482,1.2083e-05,-9.5e-07,0.0,0 STARLINK-3556,1 51877U 22022AB  23123.89180112 -.00000095  00000-0  12083-4 0  9990,2 51877  53.2173 351.4441 0001026  86.1627 273.9482 15.08841338 66123,6917.876,95.437,540.451,539.032,0.0
51877.0,STARLINK-3556,PAYLOAD,2023-05-03 22:59:34,15.08843843,0.0001041,53.2176,351.1456,89.6077,270.5034,5.5849e-05,6.01e-06,0.0,0 STARLINK-3556,1 51877U 22022AB  23123.95804071  .00000601  00000-0  55849-4 0  9993,2 51877  53.2176 351.1456 0001041  89.6077 270.5034 15.08843843 66133,6917.869,95.437,540.454,539.013,0.0
51877.0,STARLINK-3556,PAYLOAD,2023-05-04 08:31:53,15.08842424,0.0001038,53.2176,349.3607,90.7085,269.4026,3.6561e-05,2.94e-06,0.0,0 STARLINK-3556,1 51877U 22022AB  23124.35548085  .00000294  00000-0  36561-4 0  9996,2 51877  53.2176 349.3607 0001038  90.7085 269.4026 15.08842424 66196,6917.873,95.437,540.456,539.02,0.0
51877.0,STARLINK-3556,PAYLOAD,2023-05-04 21:14:58,15.08847682,0.0001013,53.2181,346.9807,98.5409,261.5698,4.961e-05,5.02e-06,0.0,0 STARLINK-3556,1 51877U 22022AB  23124.88539777  .00000502  00000-0  49610-4 0  9993,2 51877  53.2181 346.9807 0001013  98.5409 261.5698 15.08847682 66274,6917.857,95.437,540.423,539.021,0.0
51877.0,STARLINK-3556,PAYLOAD,2023-05-05 14:44:13,15.08834793,0.0001014,53.2179,343.7088,101.9606,258.15,3.0912e-05,2.04e-06,0.0,0 STARLINK-3556,1 51877U 22022AB  23125.61404657  .00000204  00000-0  30912-4 0  9997,2 51877  53.2179 343.7088 0001014 101.9606 258.1500 15.08834793 66381,6917.896,95.438,540.463,539.06,0.0
51877.0,STARLINK-3556,PAYLOAD,2023-05-05 21:05:46,15.08835067,8.89e-05,53.2168,342.5225,80.2166,279.8926,3.6732e-05,2.97e-06,0.0,0 STARLINK-3556,1 51877U 22022AB  23125.87900731  .00000297  00000-0  36732-4 0  9997,2 51877  53.2168 342.5225 0000889  80.2166 279.8926 15.08835067 66420,6917.895,95.438,540.375,539.145,0.0
51877.0,STARLINK-3556,PAYLOAD,2023-05-06 00:16:32,15.08838751,9.28e-05,53.2176,341.9254,86.1072,274.0026,6.1936e-05,6.98e-06,0.0,0 STARLINK-3556,1 51877U 22022AB  23126.01148435  .00000698  00000-0  61936-4 0  9998,2 51877  53.2176 341.9254 0000928  86.1072 274.0026 15.08838751 66442,6917.884,95.438,540.391,539.107,0.0
51877.0,STARLINK-3556,PAYLOAD,2023-05-07 00:07:18,15.08851067,9.37e-05,53.2169,337.465,76.8485,283.2612,0.00012249,1.663e-05,0.0,0 STARLINK-3556,1 51877U 22022AB  23127.00507587  .00001663  00000-0  12249-3 0  9990,2 51877  53.2169 337.4650 0000937  76.8485 283.2612 15.08851067 66592,6917.847,95.437,540.36,539.063,0.0
51877.0,STARLINK-3556,PAYLOAD,2023-05-07 20:47:21,15.08829089,9.21e-05,53.217,333.5997,78.4072,281.7023,3.9396e-05,3.39e-06,0.0,0 STARLINK-3556,1 51877U 22022AB  23127.86621991  .00000339  00000-0  39396-4 0  9992,2 51877  53.2170 333.5997 0000921  78.4072 281.7023 15.08829089 66721,6917.914,95.438,540.416,539.142,0.0
51877.0,STARLINK-3556,PAYLOAD,2023-05-08 06:19:39,15.08836448,9.84e-05,53.2162,331.8153,80.2952,279.8151,7.4404e-05,8.96e-06,0.0,0 STARLINK-3556,1 51877U 22022AB  23128.26365447  .00000896  00000-0  74404-4 0  9995,2 51877  53.2162 331.8153 0000984  80.2952 279.8151 15.08836448 66787,6917.891,95.438,540.437,539.076,0.0
51877.0,STARLINK-3556,PAYLOAD,2023-05-08 20:38:07,15.08855771,9.14e-05,53.2156,329.1396,90.2156,269.8941,0.00042078,6.418e-05,0.0,0 STARLINK-3556,1 51877U 22022AB  23128.85980689  .00006418  00000-0  42078-3 0  9998,2 51877  53.2156 329.1396 0000914  90.2156 269.8941 15.08855771 66875,6917.832,95.437,540.329,539.065,0.0
51877.0,STARLINK-3556,PAYLOAD,2023-05-09 06:10:25,15.08867243,9.27e-05,53.2161,327.3549,78.826,281.2837,0.00062348,9.656e-05,0.0,0 STARLINK-3556,1 51877U 22022AB  23129.25724080  .00009656  00000-0  62348-3 0  9993,2 51877  53.2161 327.3549 0000927  78.8260 281.2837 15.08867243 66939,6917.797,95.436,540.303,539.021,0.0
51877.0,STARLINK-3556,PAYLOAD,2023-05-10 06:01:12,15.08851943,9.67e-05,53.2166,322.8944,79.9818,280.1283,7.3634e-05,8.85e-06,0.0,0 STARLINK-3556,1 51877U 22022AB  23130.25083736  .00000885  00000-0  73634-4 0  9997,2 51877  53.2166 322.8944 0000967  79.9818 280.1283 15.08851943 67088,6917.844,95.437,540.378,539.04,0.0
51877.0,STARLINK-3556,PAYLOAD,2023-05-10 18:44:18,15.08829146,0.0001167,53.2159,320.5161,86.8717,273.2409,-0.00038548,-6.416e-05,0.0,0 STARLINK-3556,1 51877U 22022AB  23130.78076471 -.00006416  00000-0 -38548-3 0  9995,2 51877  53.2159 320.5161 0001167  86.8717 273.2409 15.08829146 67166,6917.914,95.438,540.586,538.971,0.0
51877.0,STARLINK-3556,PAYLOAD,2023-05-11 05:52:00,15.08835881,0.0001193,53.2157,318.4339,86.091,274.0219,-5.4641e-05,-1.157e-05,0.0,0 STARLINK-3556,1 51877U 22022AB  23131.24444718 -.00001157  00000-0 -54641-4 0  9990,2 51877  53.2157 318.4339 0001193  86.0910 274.0219 15.08835881 67232,6917.893,95.438,540.583,538.933,0.0
51877.0,STARLINK-3556,PAYLOAD,2023-05-11 18:35:05,15.08842525,0.0001251,53.2154,316.055,84.0441,276.0693,0.00047429,7.269e-05,0.0,0 STARLINK-3556,1 51877U 22022AB  23131.77437070  .00007269  00000-0  47429-3 0  9994,2 51877  53.2154 316.0550 0001251  84.0441 276.0693 15.08842525 67310,6917.873,95.437,540.603,538.872,0.0
51877.0,STARLINK-3556,PAYLOAD,2023-05-12 18:25:52,15.08849713,0.0001237,53.215,311.5929,88.2801,271.8333,0.00055547,8.566e-05,0.0,0 STARLINK-3556,1 51877U 22022AB  23132.76797281  .00008566  00000-0  55547-3 0  9998,2 51877  53.2150 311.5929 0001237  88.2801 271.8333 15.08849713 67462,6917.851,95.437,540.571,538.86,0.0
51877.0,STARLINK-3556,PAYLOAD,2023-05-13 19:52:04,15.08829247,0.0001224,53.2152,306.8383,74.93,285.1827,1.3987e-05,-6.5e-07,0.0,0 STARLINK-3556,1 51877U 22022AB  23133.82782550 -.00000065  00000-0  13987-4 0  9999,2 51877  53.2152 306.8383 0001224  74.9300 285.1827 15.08829247 67621,6917.913,95.438,540.625,538.932,0.0
51877.0,STARLINK-3556,PAYLOAD,2023-05-14 19:42:50,15.08852625,0.000114,53.2158,302.3773,85.0761,275.0361,0.00059393,9.18e-05,0.0,0 STARLINK-3556,1 51877U 22022AB  23134.82142120  .00009180  00000-0  59393-3 0  9999,2 51877  53.2158 302.3773 0001140  85.0761 275.0361 15.08852625 67775,6917.842,95.437,540.495,538.918,0.0
51877.0,STARLINK-3556,PAYLOAD,2023-05-15 03:39:46,15.08846655,0.0001222,53.2162,300.8892,83.9316,276.1815,0.00055206,8.511e-05,0.0,0 STARLINK-3556,1 51877U 22022AB  23135.15262219  .00008511  00000-0  55206-3 0  9994,2 51877  53.2162 300.8892 0001222  83.9316 276.1815 15.08846655 67827,6917.86,95.437,540.57,538.88,0.0
